LEMUR-1                 
1 40044U 14033AL  26187.89813483  .00001658  00000+0  19528-3 0  9998
2 40044  97.7901 337.2682 0048471  15.2039 345.0619 14.85320042648399
LEMUR-2-GREENBERG       
1 42837U 17042N   26187.75207538  .00013796  00000+0  44885-3 0  9996
2 42837  97.3832   8.2953 0007188 295.9330  64.1170 15.31966739491384
LEMUR-2-ANDIS           
1 42838U 17042P   26187.73544481  .00017878  00000+0  51664-3 0  9994
2 42838  97.3685   8.5318 0007107 293.7973  66.2525 15.35678970491455
LEMUR-2-MONSON          
1 42839U 17042Q   26187.73806894  .00011607  00000+0  41953-3 0  9998
2 42839  97.4095   8.2234 0005141 284.6835  75.3834 15.28600277491156
LEMUR-2-FURIAUS         
1 42840U 17042R   26187.95544542  .00012434  00000+0  41797-3 0  9998
2 42840  97.3782   6.4082 0006627   1.9917 358.1349 15.30941362491230
LEMUR-2-PETERG          
1 42841U 17042S   26187.47065099  .00024549  00000+0  72866-3 0  9992
2 42841  97.4000  12.5429 0002864 263.6027  96.4890 15.34790924491396
LEMUR-2-DEMBITZ         
1 42842U 17042T   26187.45219817  .00017223  00000+0  57818-3 0  9991
2 42842  97.3834   8.9463 0005291 313.9812  46.0993 15.30918269491290
LEMUR-2-ZACHARY         
1 42845U 17042W   26187.99504706  .00039508  00000+0  65281-3 0  9990
2 42845  97.3591  20.0768 0002338 291.9374  68.1630 15.52137233492273
LEMUR-2-AMANDA-SVANTE   
1 48269U 21034B   26187.19863294  .00035315  00000+0  10207-2 0  9993
2 48269  97.5745 266.0000 0004036 164.2126 195.9244 15.35552160283973
LEMUR-2-SPECIAL-K       
1 48273U 21034F   26187.23722578  .00241712  00000+0  18453-2 0  9993
2 48273  97.5636 275.5626 0005773 220.9079 139.1750 15.71456484284674
LEMUR-2-EMBRIONOVIS     
1 56970U 23084AQ  26187.91800208  .00010566  00000+0  28396-3 0  9994
2 56970  97.6318 332.8842 0007739 238.8204 121.2282 15.38076097170716
LEMUR-2-DEVERILL-M-T    
1 57391U 23100F   26188.04906124  .00021057  00000+0  51594-3 0  9993
2 57391  99.4457 232.5577 0004826 332.4144  27.6839 15.40798333164309
LEMUR-2-BASS            
1 58259U 23174D   26188.17891571  .00013445  00000+0  29848-3 0  9990
2 58259  97.3840 273.1792 0007992 101.9989 258.2155 15.43801011148440
LEMUR-2-JK0903EM1407    
1 58336U 23174CJ  26188.19316044  .00020526  00000+0  33311-3 0  9993
2 58336  97.3914 279.2419 0004296  58.9562 301.2112 15.52763120148836
LEMUR-2-MJR092620       
1 58340U 23174CN  26187.71556336  .00015007  00000+0  31298-3 0  9995
2 58340  97.3969 278.1135 0006071  58.6351 301.5491 15.45636987148666
LEMUR-2-NIMBUS2000      
1 58899U 24022A   26188.02174235  .00016668  00000+0  40709-3 0  9997
2 58899  97.4093  38.2803 0009530  55.1826 305.0316 15.40867104135329
LEMUR-2-VALHALLA        
1 58900U 24022B   26188.02345244  .00011733  00000+0  29263-3 0  9990
2 58900  97.4094  38.2595 0010016  51.0671 309.1466 15.40309483135327
LEMUR-2-CAEL            
1 58903U 24022E   26188.08115866  .00013015  00000+0  31040-3 0  9995
2 58903  97.4077  39.2893 0007979  37.3970 322.7831 15.41661151135406
LEMUR-2-JOHNNYTRUONG    
1 59146U 24043BA  26187.95549128  .00033663  00000+0  38537-3 0  9994
2 59146  97.5392 340.9066 0004383 117.4425 242.7278 15.62060405131121
LEMUR-2-TOMATOKECHUP    
1 60471U 24149D   26187.71347409  .00008991  00000+0  25500-3 0  9998
2 60471  97.3789 269.8148 0002908 137.9028 222.2440 15.36460405105163
LEMUR-2-STELLA          
1 60533U 24149BT  26188.20005756  .00007376  00000+0  43025-3 0  9996
2 60533  97.6725 270.7476 0001111 110.5644 249.5705 15.12258464103524
LEMUR-2-MARHISYAM       
1 60536U 24149BW  26188.18785466  .00008016  00000+0  47483-3 0  9993
2 60536  97.6871 271.2045 0002783  81.1160 279.0384 15.11670752103505
LEMUR-2-AHMED-ASRAR     
1 60576U 24149DN  26188.20241426  .00008163  00000+0  46359-3 0  9997
2 60576  97.6994 273.3904 0000574 259.3398 100.7767 15.13187548103592
LEMUR-2-LLOYD           
1 60577U 24149DP  26187.73105913  .00007068  00000+0  44313-3 0  9996
2 60577  97.6735 268.8748 0004987  92.1025 268.0775 15.09641264103348
LEMUR-2-SQUIRRELCOMM    
1 60578U 24149DQ  26188.17155730  .00004800  00000+0  32133-3 0  9996
2 60578  97.6704 269.0219 0004831 356.7461   3.3734 15.07390844103418
LEMUR-2-SIERRINI        
1 60579U 24149DR  26188.08289999  .00008181  00000+0  48800-3 0  9996
2 60579  97.6835 270.7680 0006628 111.1290 249.0649 15.11398249103465
LEMUR-2-WILSON          
1 62694U 25009CP  26188.17155792  .00002497  00000+0  23207-3 0  9993
2 62694  97.7021 266.2859 0002599   5.7645 354.3605 14.95258050 80345
LEMUR-2-STAR-FOX        
1 62696U 25009CR  26187.60415116  .00005629  00000+0  42526-3 0  9996
2 62696  97.6928 269.0749 0003481  70.9430 289.2172 15.02774699 80478
LEMUR-2-ARIANNA         
1 62699U 25009CU  26187.20310691  .00007087  00000+0  53415-3 0  9996
2 62699  97.6866 268.4362 0003872  76.7600 283.4057 15.02770802 80417
LEMUR-2-ALISIA          
1 62706U 25009DB  26188.04282409  .00006452  00000+0  48274-3 0  9995
2 62706  97.6951 270.0782 0003408 155.6076 204.5311 15.03089428103146
